{
  "type": "FeatureCollection",
  "name": "firescape prefire modeling regions - pilot",
  "crs": { "type": "name", "properties": { "name": "urn:ogc:def:crs:OGC:1.3:CRS84" } },
  "features": [
    {
      "type": "Feature",
      "properties": {
        "region": "pilot",
        "note": "Pilot AOI north of Reno: Peavine, Petersen Mtn, Dogskin Mtn, Virginia Mtns, west Pyramid Lake. Contains Bug and Stallion fire origins (Aug 2026). Replaced by statewide NV regions (HU10-snapped) after the pilot."
      },
      "geometry": {
        "type": "Polygon",
        "coordinates": [
          [
            [-120.30, 39.50],
            [-119.30, 39.50],
            [-119.30, 40.50],
            [-120.30, 40.50],
            [-120.30, 39.50]
          ]
        ]
      }
    }
  ]
}
